{
  "type": "FeatureCollection",
  "features": [
    {
      "type": "Feature",
      "properties": {
        "norad_id": 58647,
        "name": "TIANMU-1 13",
        "group": "weather",
        "lat": 41.89158096870728,
        "lon": -162.88076209866642,
        "alt_km": 490.2440814172023,
        "timestamp": "2025-12-16T21:38:56.812320+00:00",
        "meta_object_name": "TIANMU-1 13",
        "meta_object_id": "2023-205C",
        "meta_epoch": "2025-12-16T08:26:42.933120",
        "meta_mean_motion": 15.24572171,
        "meta_eccentricity": 0.00060786,
        "meta_inclination": 97.3621,
        "meta_ra_of_asc_node": 9.9187,
        "meta_arg_of_pericenter": 250.8248,
        "meta_mean_anomaly": 109.2332,
        "meta_ephemeris_type": 0,
        "meta_classification_type": "U",
        "meta_norad_cat_id": 58647,
        "meta_element_set_no": 999,
        "meta_rev_at_epoch": 10962,
        "meta_bstar": 0.00020943749,
        "meta_mean_motion_dot": 5.091e-05,
        "meta_mean_motion_ddot": 0,
        "tle_line1": "1 58647U 23205C   25350.35188580  .00005091  00000+0  20944-3 0  9991",
        "tle_line2": "2 58647  97.3621   9.9187 0006078 250.8248 109.2332 15.24572171109627"
      },
      "geometry": {
        "type": "Point",
        "coordinates": [
          -162.88076209866642,
          41.89158096870728
        ]
      }
    },
    {
      "type": "Feature",
      "properties": {
        "norad_id": 58648,
        "name": "TIANMU-1 14",
        "group": "weather",
        "lat": -47.97545524340074,
        "lon": -178.43683819590606,
        "alt_km": 494.7674355193667,
        "timestamp": "2025-12-16T21:38:56.812330+00:00",
        "meta_object_name": "TIANMU-1 14",
        "meta_object_id": "2023-205D",
        "meta_epoch": "2025-12-16T08:02:52.029888",
        "meta_mean_motion": 15.24555575,
        "meta_eccentricity": 0.0006865,
        "meta_inclination": 97.3553,
        "meta_ra_of_asc_node": 9.2479,
        "meta_arg_of_pericenter": 256.8067,
        "meta_mean_anomaly": 103.2405,
        "meta_ephemeris_type": 0,
        "meta_classification_type": "U",
        "meta_norad_cat_id": 58648,
        "meta_element_set_no": 999,
        "meta_rev_at_epoch": 10962,
        "meta_bstar": 0.00021283929,
        "meta_mean_motion_dot": 5.173e-05,
        "meta_mean_motion_ddot": 0,
        "tle_line1": "1 58648U 23205D   25350.33532442  .00005173  00000+0  21284-3 0  9999",
        "tle_line2": "2 58648  97.3553   9.2479 0006865 256.8067 103.2405 15.24555575109622"
      },
      "geometry": {
        "type": "Point",
        "coordinates": [
          -178.43683819590606,
          -47.97545524340074
        ]
      }
    },
    {
      "type": "Feature",
      "properties": {
        "norad_id": 58660,
        "name": "TIANMU-1 19",
        "group": "weather",
        "lat": 6.2855422764890925,
        "lon": -77.2446569620979,
        "alt_km": 482.86643103489314,
        "timestamp": "2025-12-16T21:38:56.812340+00:00",
        "meta_object_name": "TIANMU-1 19",
        "meta_object_id": "2023-208A",
        "meta_epoch": "2025-12-16T08:19:02.796960",
        "meta_mean_motion": 15.279177,
        "meta_eccentricity": 0.00042337,
        "meta_inclination": 97.4388,
        "meta_ra_of_asc_node": 101.3764,
        "meta_arg_of_pericenter": 236.9342,
        "meta_mean_anomaly": 123.1491,
        "meta_ephemeris_type": 0,
        "meta_classification_type": "U",
        "meta_norad_cat_id": 58660,
        "meta_element_set_no": 999,
        "meta_rev_at_epoch": 10937,
        "meta_bstar": 0.00026998775,
        "meta_mean_motion_dot": 7.284e-05,
        "meta_mean_motion_ddot": 0,
        "tle_line1": "1 58660U 23208A   25350.34656015  .00007284  00000+0  26999-3 0  9993",
        "tle_line2": "2 58660  97.4388 101.3764 0004233 236.9342 123.1491 15.27917700109379"
      },
      "geometry": {
        "type": "Point",
        "coordinates": [
          -77.2446569620979,
          6.2855422764890925
        ]
      }
    },
    {
      "type": "Feature",
      "properties": {
        "norad_id": 58661,
        "name": "TIANMU-1 20",
        "group": "weather",
        "lat": -81.39328837653962,
        "lon": -137.21869804721706,
        "alt_km": 481.6323589601743,
        "timestamp": "2025-12-16T21:38:56.812351+00:00",
        "meta_object_name": "TIANMU-1 20",
        "meta_object_id": "2023-208B",
        "meta_epoch": "2025-12-16T06:21:20.081664",
        "meta_mean_motion": 15.29106671,
        "meta_eccentricity": 0.00063825,
        "meta_inclination": 97.4326,
        "meta_ra_of_asc_node": 101.7458,
        "meta_arg_of_pericenter": 250.9893,
        "meta_mean_anomaly": 109.0656,
        "meta_ephemeris_type": 0,
        "meta_classification_type": "U",
        "meta_norad_cat_id": 58661,
        "meta_element_set_no": 999,
        "meta_rev_at_epoch": 10943,
        "meta_bstar": 0.0002630936,
        "meta_mean_motion_dot": 7.362e-05,
        "meta_mean_motion_ddot": 0,
        "tle_line1": "1 58661U 23208B   25350.26481576  .00007362  00000+0  26309-3 0  9995",
        "tle_line2": "2 58661  97.4326 101.7458 0006382 250.9893 109.0656 15.29106671109432"
      },
      "geometry": {
        "type": "Point",
        "coordinates": [
          -137.21869804721706,
          -81.39328837653962
        ]
      }
    },
    {
      "type": "Feature",
      "properties": {
        "norad_id": 58662,
        "name": "TIANMU-1 21",
        "group": "weather",
        "lat": -51.39883085824862,
        "lon": 113.72716586890151,
        "alt_km": 476.18609357400874,
        "timestamp": "2025-12-16T21:38:56.812361+00:00",
        "meta_object_name": "TIANMU-1 21",
        "meta_object_id": "2023-208C",
        "meta_epoch": "2025-12-16T07:45:50.970240",
        "meta_mean_motion": 15.3163013,
        "meta_eccentricity": 0.0005994,
        "meta_inclination": 97.4372,
        "meta_ra_of_asc_node": 103.729,
        "meta_arg_of_pericenter": 244.9305,
        "meta_mean_anomaly": 115.1315,
        "meta_ephemeris_type": 0,
        "meta_classification_type": "U",
        "meta_norad_cat_id": 58662,
        "meta_element_set_no": 999,
        "meta_rev_at_epoch": 10954,
        "meta_bstar": 0.00028838494,
        "meta_mean_motion_dot": 8.735e-05,
        "meta_mean_motion_ddot": 0,
        "tle_line1": "1 58662U 23208C   25350.32350660  .00008735  00000+0  28838-3 0  9996",
        "tle_line2": "2 58662  97.4372 103.7290 0005994 244.9305 115.1315 15.31630130109546"
      },
      "geometry": {
        "type": "Point",
        "coordinates": [
          113.72716586890151,
          -51.39883085824862
        ]
      }
    },
    {
      "type": "Feature",
      "properties": {
        "norad_id": 58663,
        "name": "TIANMU-1 22",
        "group": "weather",
        "lat": 8.765678734118557,
        "lon": -76.85774357545583,
        "alt_km": 484.81507577961384,
        "timestamp": "2025-12-16T21:38:56.812371+00:00",
        "meta_object_name": "TIANMU-1 22",
        "meta_object_id": "2023-208D",
        "meta_epoch": "2025-12-16T08:19:34.587840",
        "meta_mean_motion": 15.27667488,
        "meta_eccentricity": 0.00026659,
        "meta_inclination": 97.4383,
        "meta_ra_of_asc_node": 101.4342,
        "meta_arg_of_pericenter": 268.1916,
        "meta_mean_anomaly": 91.9018,
        "meta_ephemeris_type": 0,
        "meta_classification_type": "U",
        "meta_norad_cat_id": 58663,
        "meta_element_set_no": 999,
        "meta_rev_at_epoch": 10938,
        "meta_bstar": 0.00025070538,
        "meta_mean_motion_dot": 6.705e-05,
        "meta_mean_motion_ddot": 0,
        "tle_line1": "1 58663U 23208D   25350.34692810  .00006705  00000+0  25071-3 0  9996",
        "tle_line2": "2 58663  97.4383 101.4342 0002665 268.1916  91.9018 15.27667488109384"
      },
      "geometry": {
        "type": "Point",
        "coordinates": [
          -76.85774357545583,
          8.765678734118557
        ]
      }
    },
    {
      "type": "Feature",
      "properties": {
        "norad_id": 58700,
        "name": "TIANMU-1 15",
        "group": "weather",
        "lat": -71.6731681089934,
        "lon": -30.95582095767593,
        "alt_km": 495.8871027264513,
        "timestamp": "2025-12-16T21:38:56.812381+00:00",
        "meta_object_name": "TIANMU-1 15",
        "meta_object_id": "2024-004A",
        "meta_epoch": "2025-12-15T13:02:10.173984",
        "meta_mean_motion": 15.24523626,
        "meta_eccentricity": 0.00056536,
        "meta_inclination": 97.4626,
        "meta_ra_of_asc_node": 171.0022,
        "meta_arg_of_pericenter": 279.9728,
        "meta_mean_anomaly": 80.0871,
        "meta_ephemeris_type": 0,
        "meta_classification_type": "U",
        "meta_norad_cat_id": 58700,
        "meta_element_set_no": 999,
        "meta_rev_at_epoch": 10777,
        "meta_bstar": 0.00021318175,
        "meta_mean_motion_dot": 5.174e-05,
        "meta_mean_motion_ddot": 0,
        "tle_line1": "1 58700U 24004A   25349.54317331  .00005174  00000+0  21318-3 0  9994",
        "tle_line2": "2 58700  97.4626 171.0022 0005653 279.9728  80.0871 15.24523626107774"
      },
      "geometry": {
        "type": "Point",
        "coordinates": [
          -30.95582095767593,
          -71.6731681089934
        ]
      }
    }
  ]
}